{
  "type": "FeatureCollection",
  "features": [
    {
      "type": "Feature",
      "properties": {
        "norad_id": 39554,
        "name": "COSMOS 2251 DEB",
        "group": "cosmos-2251-debris",
        "lat": -25.618212210263113,
        "lon": -121.37285591587084,
        "alt_km": 535.1688458341832,
        "timestamp": "2025-12-21T11:31:43.257883+00:00",
        "meta_object_name": "COSMOS 2251 DEB",
        "meta_object_id": "1993-036BUL",
        "meta_epoch": "2025-12-10T06:12:03.924864",
        "meta_mean_motion": 15.10130993,
        "meta_eccentricity": 0.0002993,
        "meta_inclination": 74.0187,
        "meta_ra_of_asc_node": 269.7383,
        "meta_arg_of_pericenter": 74.7531,
        "meta_mean_anomaly": 81.5927,
        "meta_ephemeris_type": 0,
        "meta_classification_type": "U",
        "meta_norad_cat_id": 39554,
        "meta_element_set_no": 999,
        "meta_rev_at_epoch": 64347,
        "meta_bstar": 0.0046896,
        "meta_mean_motion_dot": 0.000773,
        "meta_mean_motion_ddot": 0,
        "tle_line1": "1 39554U 93036BUL 25344.25837876  .00077300  00000+0  46896-2 0  9992",
        "tle_line2": "2 39554  74.0187 269.7383 0002993  74.7531  81.5927 15.10130993643471"
      },
      "geometry": {
        "type": "Point",
        "coordinates": [
          -121.37285591587084,
          -25.618212210263113
        ]
      }
    },
    {
      "type": "Feature",
      "properties": {
        "norad_id": 39583,
        "name": "COSMOS 2251 DEB",
        "group": "cosmos-2251-debris",
        "lat": -38.110947659677514,
        "lon": 63.489771028618385,
        "alt_km": 747.9252689685136,
        "timestamp": "2025-12-21T11:31:43.257893+00:00",
        "meta_object_name": "COSMOS 2251 DEB",
        "meta_object_id": "1993-036BUN",
        "meta_epoch": "2025-12-20T09:51:33.318720",
        "meta_mean_motion": 14.6056655,
        "meta_eccentricity": 0.01369587,
        "meta_inclination": 73.9317,
        "meta_ra_of_asc_node": 232.4786,
        "meta_arg_of_pericenter": 344.3016,
        "meta_mean_anomaly": 15.392,
        "meta_ephemeris_type": 0,
        "meta_classification_type": "U",
        "meta_norad_cat_id": 39583,
        "meta_element_set_no": 999,
        "meta_rev_at_epoch": 61891,
        "meta_bstar": 0.00096933589,
        "meta_mean_motion_dot": 5.347e-05,
        "meta_mean_motion_ddot": 0,
        "tle_line1": "1 39583U 93036BUN 25354.41080230  .00005347  00000+0  96934-3 0  9998",
        "tle_line2": "2 39583  73.9317 232.4786 0136958 344.3016  15.3920 14.60566550618918"
      },
      "geometry": {
        "type": "Point",
        "coordinates": [
          63.489771028618385,
          -38.110947659677514
        ]
      }
    },
    {
      "type": "Feature",
      "properties": {
        "norad_id": 39585,
        "name": "COSMOS 2251 DEB",
        "group": "cosmos-2251-debris",
        "lat": -11.825741219262342,
        "lon": -78.7542845651225,
        "alt_km": 674.9073679998328,
        "timestamp": "2025-12-21T11:31:43.257904+00:00",
        "meta_object_name": "COSMOS 2251 DEB",
        "meta_object_id": "1993-036BUQ",
        "meta_epoch": "2025-12-17T13:45:47.587680",
        "meta_mean_motion": 14.58681164,
        "meta_eccentricity": 0.00655713,
        "meta_inclination": 74.0421,
        "meta_ra_of_asc_node": 292.1145,
        "meta_arg_of_pericenter": 51.6529,
        "meta_mean_anomaly": 309.0503,
        "meta_ephemeris_type": 0,
        "meta_classification_type": "U",
        "meta_norad_cat_id": 39585,
        "meta_element_set_no": 999,
        "meta_rev_at_epoch": 62591,
        "meta_bstar": 0.00024435975,
        "meta_mean_motion_dot": 1.143e-05,
        "meta_mean_motion_ddot": 0,
        "tle_line1": "1 39585U 93036BUQ 25351.57346745  .00001143  00000+0  24436-3 0  9998",
        "tle_line2": "2 39585  74.0421 292.1145 0065571  51.6529 309.0503 14.58681164625913"
      },
      "geometry": {
        "type": "Point",
        "coordinates": [
          -78.7542845651225,
          -11.825741219262342
        ]
      }
    },
    {
      "type": "Feature",
      "properties": {
        "norad_id": 39586,
        "name": "COSMOS 2251 DEB",
        "group": "cosmos-2251-debris",
        "lat": 44.93386348071087,
        "lon": -130.8161041041979,
        "alt_km": 782.532726459548,
        "timestamp": "2025-12-21T11:31:43.257915+00:00",
        "meta_object_name": "COSMOS 2251 DEB",
        "meta_object_id": "1993-036BUR",
        "meta_epoch": "2025-12-15T23:50:08.053728",
        "meta_mean_motion": 14.21232237,
        "meta_eccentricity": 0.01008868,
        "meta_inclination": 74.0082,
        "meta_ra_of_asc_node": 222.4068,
        "meta_arg_of_pericenter": 356.2296,
        "meta_mean_anomaly": 66.1426,
        "meta_ephemeris_type": 0,
        "meta_classification_type": "U",
        "meta_norad_cat_id": 39586,
        "meta_element_set_no": 999,
        "meta_rev_at_epoch": 61018,
        "meta_bstar": 0.00043436803,
        "meta_mean_motion_dot": 9.7e-06,
        "meta_mean_motion_ddot": 0,
        "tle_line1": "1 39586U 93036BUR 25349.99314877  .00000970  00000+0  43437-3 0  9992",
        "tle_line2": "2 39586  74.0082 222.4068 0100886 356.2296  66.1426 14.21232237610182"
      },
      "geometry": {
        "type": "Point",
        "coordinates": [
          -130.8161041041979,
          44.93386348071087
        ]
      }
    },
    {
      "type": "Feature",
      "properties": {
        "norad_id": 39591,
        "name": "COSMOS 2251 DEB",
        "group": "cosmos-2251-debris",
        "lat": -39.93897218731026,
        "lon": 64.43326805955854,
        "alt_km": 769.0230833910709,
        "timestamp": "2025-12-21T11:31:43.257925+00:00",
        "meta_object_name": "COSMOS 2251 DEB",
        "meta_object_id": "1993-036BUW",
        "meta_epoch": "2025-12-21T00:49:05.053728",
        "meta_mean_motion": 14.41827053,
        "meta_eccentricity": 0.0029425,
        "meta_inclination": 74.0194,
        "meta_ra_of_asc_node": 231.378,
        "meta_arg_of_pericenter": 342.6153,
        "meta_mean_anomaly": 83.9914,
        "meta_ephemeris_type": 0,
        "meta_classification_type": "U",
        "meta_norad_cat_id": 39591,
        "meta_element_set_no": 999,
        "meta_rev_at_epoch": 61896,
        "meta_bstar": 0.00018836,
        "meta_mean_motion_dot": 5.92e-06,
        "meta_mean_motion_ddot": 0,
        "tle_line1": "1 39591U 93036BUW 25355.03408627  .00000592  00000+0  18836-3 0  9992",
        "tle_line2": "2 39591  74.0194 231.3780 0029425 342.6153  83.9914 14.41827053618963"
      },
      "geometry": {
        "type": "Point",
        "coordinates": [
          64.43326805955854,
          -39.93897218731026
        ]
      }
    },
    {
      "type": "Feature",
      "properties": {
        "norad_id": 40218,
        "name": "COSMOS 2251 DEB",
        "group": "cosmos-2251-debris",
        "lat": 64.90408984513125,
        "lon": 14.93902053063207,
        "alt_km": 757.433972709412,
        "timestamp": "2025-12-21T11:31:43.257936+00:00",
        "meta_object_name": "COSMOS 2251 DEB",
        "meta_object_id": "1993-036BUX",
        "meta_epoch": "2025-12-14T10:48:31.251744",
        "meta_mean_motion": 14.41597705,
        "meta_eccentricity": 0.00168728,
        "meta_inclination": 74.0298,
        "meta_ra_of_asc_node": 245.6562,
        "meta_arg_of_pericenter": 328.6,
        "meta_mean_anomaly": 31.4147,
        "meta_ephemeris_type": 0,
        "meta_classification_type": "U",
        "meta_norad_cat_id": 40218,
        "meta_element_set_no": 999,
        "meta_rev_at_epoch": 58886,
        "meta_bstar": 0.00046023204,
        "meta_mean_motion_dot": 1.474e-05,
        "meta_mean_motion_ddot": 0,
        "tle_line1": "1 40218U 93036BUX 25348.45036171  .00001474  00000+0  46023-3 0  9998",
        "tle_line2": "2 40218  74.0298 245.6562 0016872 328.6000  31.4147 14.41597705588868"
      },
      "geometry": {
        "type": "Point",
        "coordinates": [
          14.93902053063207,
          64.90408984513125
        ]
      }
    },
    {
      "type": "Feature",
      "properties": {
        "norad_id": 40223,
        "name": "COSMOS 2251 DEB",
        "group": "cosmos-2251-debris",
        "lat": -58.78678719678644,
        "lon": -80.88967487877554,
        "alt_km": 551.1100475293815,
        "timestamp": "2025-12-21T11:31:43.257946+00:00",
        "meta_object_name": "COSMOS 2251 DEB",
        "meta_object_id": "1993-036BVC",
        "meta_epoch": "2025-12-20T12:10:32.022912",
        "meta_mean_motion": 15.04400789,
        "meta_eccentricity": 0.00154313,
        "meta_inclination": 73.937,
        "meta_ra_of_asc_node": 72.7196,
        "meta_arg_of_pericenter": 279.9109,
        "meta_mean_anomaly": 95.2538,
        "meta_ephemeris_type": 0,
        "meta_classification_type": "U",
        "meta_norad_cat_id": 40223,
        "meta_element_set_no": 999,
        "meta_rev_at_epoch": 59491,
        "meta_bstar": 0.0026290645,
        "meta_mean_motion_dot": 0.00036973,
        "meta_mean_motion_ddot": 0,
        "tle_line1": "1 40223U 93036BVC 25354.50731508  .00036973  00000+0  26291-2 0  9999",
        "tle_line2": "2 40223  73.9370  72.7196 0015431 279.9109  95.2538 15.04400789594913"
      },
      "geometry": {
        "type": "Point",
        "coordinates": [
          -80.88967487877554,
          -58.78678719678644
        ]
      }
    }
  ]
}